GALAXY 25 (G-25)        
1 24812C 97026A   22139.00000000  .00000087  00000-0  00000-0 0  1399
2 24812   3.6238  83.9693 0006864 351.3343 227.4725  1.00272490    10
GALAXY 25 (G-25)    [PM]
1 24812C 97026A   22142.64810185  .00000087  00000-0  00000-0 0  1420
2 24812   3.6274  77.2794 0007370 351.3369 111.0729  1.00269392    18
INTELSAT 5 (IS-5)   [PM]
1 24916C 97046A   22115.00000000  .00000123  00000-0  00000-0 0  1155
2 24916   7.1167  61.4480 0003503  70.2842 258.8281  1.00152165    19
INTELSAT 5 (IS-5)       
1 24916C 97046A   22139.00000000  .00000045  00000-0  00000-0 0  1390
2 24916   7.1700  61.2820 0005995  65.9305 277.0424  1.00158048    18
INTELSAT 5 (IS-5)       
1 24916C 97046A   22142.20833333  .00000036  00000-0  00000-0 0  1423
2 24916   7.1770  61.2840 0002910   4.2209  55.7059  1.00245770    14
GALAXY 11 (G-11)        
1 26038C 99071A   22136.00000000 -.00000072  00000-0  00000-0 0  1362
2 26038   2.9158  88.1236 0000793  15.3238  37.1385  1.00270506    14
GALAXY 11 (G-11)        
1 26038C 99071A   22139.00000000 -.00000072  00000-0  00000-0 0  1398
2 26038   2.9266  88.1716 0000873  14.7478  40.6177  1.00270135    11
INTELSAT 9 (IS-9)       
1 26451C 00043A   22139.00000000 -.00000191  00000-0  00000-0 0  1390
2 26451   7.1550  61.4614 0005063 350.4621 134.7452  1.00267779    11
INTELSAT 9 (IS-9)   [PM]
1 26451C 00043A   22144.87502315 -.00000191  00000-0  00000-0 0  1443
2 26451   7.1650  61.4001 0005140   0.0226  86.0109  1.00271128    18
INTELSAT 1R (IS-1R)     
1 26608C 00072A   22136.00000000 -.00000046  00000-0  00000-0 0  1369
2 26608   4.3979  80.4199 0000495 191.0475 119.3581  1.00268719    15
INTELSAT 1R (IS-1R)     
1 26608C 00072A   22139.00000000 -.00000047  00000-0  00000-0 0  1396
2 26608   4.4081  80.4680 0000540 184.7480 128.5559  1.00268538    17
INTELSAT 10 (IS-10) [PM]
1 26766C 01019A   22135.72847222  .00000127  00000-0  00000-0 0  1357
2 26766   5.5045  73.6026 0004104 329.6593 270.2058  1.00271490    17
INTELSAT 10 (IS-10)     
1 26766C 01019A   22139.00000000  .00000127  00000-0  00000-0 0  1391
2 26766   5.5140  73.6252 0004551 358.6071 342.1965  1.00270840    17
INTELSAT 901            
1 26824C 01024A   22139.00000000 -.00000112  00000-0  00000-0 0  1397
2 26824   0.0474 106.5646 0001153 325.8733 136.7357  1.00269605    10
INTELSAT 902            
1 26900C 01039A   22139.00000000 -.00000192  00000-0  00000-0 0  1396
2 26900   2.3367  89.3117 0004063 342.1313 115.1142  1.00269494    10
INTELSAT 902        [PM]
1 26900C 01039A   22142.86828704 -.00000192  00000-0  00000-0 0  1427
2 26900   2.3430  89.3129 0003562 345.2520  68.3619  1.00273504    16
INTELSAT 904            
1 27380C 02007A   22139.00000000 -.00000123  00000-0  00000-0 0  1399
2 27380   3.1693  86.2499 0003887 342.0937 138.8114  1.00269658    10
INTELSAT 904        [PM]
1 27380C 02007A   22141.82428241 -.00000123  00000-0  00000-0 0  1416
2 27380   3.1742  86.2566 0003594 347.9271  72.4775  1.00272199    10
INTELSAT 905            
1 27438C 02027A   22139.00000000 -.00000094  00000-0  00000-0 0  1392
2 27438   2.9909  87.0038 0003337 333.8125 151.3387  1.00269374    13
INTELSAT 905        [PM]
1 27438C 02027A   22141.87986111 -.00000094  00000-0  00000-0 0  1419
2 27438   2.9922  73.7770 0003236 328.6099 129.3461  1.00270912    11
GALAXY 3C (G-3C)        
1 27445C 02030A   22136.00000000 -.00000061  00000-0  00000-0 0  1362
2 27445   0.0193   5.8191 0001253 314.6925 178.1253  1.00268549    15
GALAXY 3C (G-3C)        
1 27445C 02030A   22139.08333333  .00000036  00000-0  00000-0 0  1395
2 27445   0.0111   2.0011 0001269 333.0700 196.5979  1.00268752    13
INTELSAT 906            
1 27513C 02041A   22139.00000000  .00000105  00000-0  00000-0 0  1394
2 27513   2.0046  90.8218 0003598 325.8297 244.1527  1.00272003    12
INTELSAT 906        [PM]
1 27513C 02041A   22145.03376157  .00000105  00000-0  00000-0 0  1450
2 27513   2.0159  90.7551 0003213 335.6272 252.5327  1.00270313    15
GALAXY 12 (G-12)    [PM]
1 27715C 03013B   22138.69946759  .00000149  00000-0  00000-0 0  1389
2 27715   3.2020  85.8588 0002246 348.4271 284.8853  1.00269963    11
GALAXY 12 (G-12)        
1 27715C 03013B   22139.00000000  .00000149  00000-0  00000-0 0  1396
2 27715   3.2028  85.8624 0002801 359.4156  22.3729  1.00271014    18
GALAXY 23 (G-23)        
1 27854C 03034A   22139.00000000  .00000083  00000-0  00000-0 0  1390
2 27854   0.0387 130.3100 0003482 297.0122  48.3333  1.00270090    18
GALAXY 23 (G-23)    [PM]
1 27854C 03034A   22145.92916667  .00000103  00000-0  00000-0 0  1453
2 27854   0.0284 268.9544 0002984 163.9942  24.0273  1.00273269    16
GALAXY 13           [PM]
1 27954C 03044A   22133.23305556  .00000088  00000-0  00000-0 0  1334
2 27954   0.0182 139.2050 0002840  54.0717 354.6015  1.00268850    13
GALAXY 13               
1 27954C 03044A   22139.00000000 -.00003393  00000-0  00000-0 0  1390
2 27954   0.0443 110.3755 0000901  73.6139 285.6549  1.00269591    14
INTELSAT 10-02          
1 28358C 04022A   22136.00000000 -.00003659  00000-0  00000-0 0  1365
2 28358   0.0035 325.8958 0001304 129.5678 137.2506  1.00269971    12
INTELSAT 10-02          
1 28358C 04022A   22139.00000000 -.00003572  00000-0  00000-0 0  1395
2 28358   0.0007 337.6467 0001350 112.0632 145.9552  1.00269437    19
GALAXY 28 (G-28)        
1 28702C 05022A   22136.00000000 -.00000095  00000-0  00000-0 0  1360
2 28702   0.0156 325.1413 0002626 109.8783  69.6906  1.00270367    17
GALAXY 28 (G-28)        
1 28702C 05022A   22139.00000000 -.00000092  00000-0  00000-0 0  1393
2 28702   0.0122   0.0795 0002714  87.5010  60.0793  1.00269309    18
GALAXY 28 (G-28)    [PM]
1 28702C 05022A   22139.38892361 -.00000121  00000-0  00000-0 0  1396
2 28702   0.0070 320.9388 0002774 112.1317 214.9851  1.00271663    14
GALAXY 14 (G-14)        
1 28790C 05030A   22139.00000000  .00000246  00000-0  00000-0 0  1399
2 28790   1.1932  92.4694 0002259 327.7959 209.2820  1.00272167    18
GALAXY 14 (G-14)    [PM]
1 28790C 05030A   22142.26319444  .00000246  00000-0  00000-0 0  1420
2 28790   1.1988  92.5588 0002137 326.4213 308.5501  1.00267925    11
GALAXY 15 (G-15)        
1 28884C 05041A   22139.00000000  .00000169  00000-0  00000-0 0  1399
2 28884   0.0162 316.8555 0002054 110.2192  36.5725  1.00273234    12
GALAXY 15 (G-15)    [PM]
1 28884C 05041A   22140.63689815  .00000169  00000-0  00000-0 0  1409
2 28884   0.0127 317.9500 0002068 106.9300 269.6724  1.00269514    17
GALAXY 16 (G-16)        
1 29236C 06023A   22139.00000000 -.00003584  00000-0  00000-0 0  1397
2 29236   0.0396 100.0341 0003390 335.7703  61.8438  1.00270285    10
GALAXY 16 (G-16)    [PM]
1 29236C 06023A   22142.00942130 -.00000035  00000-0  00000-0 0  1422
2 29236   0.0373 115.3667 0002865 300.7465  87.8905  1.00269768    19
GALAXY 17 (G-17)        
1 31307C 07016B   22139.00000000 -.00000084  00000-0  00000-0 0  1394
2 31307   0.0436  54.2983 0002775   5.5308  85.8147  1.00272783    16
GALAXY 17 (G-17)    [PM]
1 31307C 07016B   22140.86796296 -.00000090  00000-0  00000-0 0  1408
2 31307   0.0259 337.5274 0002853  89.3426  33.0962  1.00269965    15
GALAXY 17 (G-17)    [PM]
1 31307C 07016B   22144.13645833 -.00000084  00000-0  00000-0 0  1449
2 31307   0.0269 349.8350 0002772  78.1381 131.8496  1.00272000    16
INTELSAT 11 (IS-11)     
1 32253C 07044B   22139.00000000 -.00000202  00000-0  00000-0 0  1398
2 32253   0.0026 340.0289 0002085  84.5846 129.0519  1.00271753    15
INTELSAT 11 (IS-11) [PM]
1 32253C 07044B   22142.73384259 -.00000178  00000-0  00000-0 0  1429
2 32253   0.0131 287.6881 0001861 145.0163  28.8189  1.00270681    10
HORIZONS-2              
1 32388C 07063B   22139.00000000  .00000023  00000-0  00000-0 0  1398
2 32388   0.0095 339.4525 0003290  79.6735 262.3809  1.00271517    17
HORIZONS-2          [PM]
1 32388C 07063B   22143.58375000 -.00000097  00000-0  00000-0 0  1438
2 32388   0.0154  27.5262 0003015  34.6677 113.9707  1.00271709    18
GALAXY 18 (G-18)        
1 32951C 08024A   22139.00000000 -.00003704  00000-0  00000-0 0  1392
2 32951   0.0303  78.0028 0003527 350.6951  44.9561  1.00270512    17
GALAXY 18 (G-18)    [PM]
1 32951C 08024A   22142.55555556  .00000116  00000-0  00000-0 0  1424
2 32951   0.0361 114.9486 0003374 318.9814 243.2225  1.00270091    17
INTELSAT 25 (IS-25)     
1 33153C 08034A   22139.00000000 -.00000134  00000-0  00000-0 0  1392
2 33153   0.0102 265.7612 0003237 158.6659 140.7185  1.00272079    19
INTELSAT 25 (IS-25) [PM]
1 33153C 08034A   22143.68585648 -.00000134  00000-0  00000-0 0  1432
2 33153   0.0196 256.2886 0002937 175.4098  24.9746  1.00271130    13
GALAXY 19 (G-19)        
1 33376C 08045A   22139.00000000 -.00000049  00000-0  00000-0 0  1396
2 33376   0.0445 110.6749 0003289 306.5677  82.4135  1.00271090    15
GALAXY 19 (G-19)    [PM]
1 33376C 08045A   22144.07464120  .00000046  00000-0  00000-0 0  1448
2 33376   0.0389 112.7544 0002963 309.8742 108.8925  1.00271440    14
INTELSAT 14 (IS-14)     
1 36097C 09064A   22139.00000000 -.00000187  00000-0  00000-0 0  1394
2 36097   0.0291  77.6363 0002752 343.1488 130.8634  1.00271618    10
INTELSAT 14 (IS-14) [PM]
1 36097C 09064A   22143.22666667 -.00000183  00000-0  00000-0 0  1431
2 36097   0.0149 281.8148 0002686 147.1211 208.4698  1.00272612    11
INTELSAT 15 (IS-15)     
1 36106C 09067A   22139.00000000 -.00000095  00000-0  00000-0 0  1396
2 36106   0.0131 324.0114 0002627  97.1215 260.6695  1.00271760    19
INTELSAT 15 (IS-15) [PM]
1 36106C 09067A   22139.75202546 -.00000095  00000-0  00000-0 0  1397
2 36106   0.0111 327.7451 0002616  95.0759 170.4517  1.00271298    16
INTELSAT 16 (IS-16)     
1 36397C 10006A   22139.00000000 -.00000154  00000-0  00000-0 0  1399
2 36397   0.0108 321.8430 0002327 119.2298  79.3857  1.00269653    18
